GLOBALSTAR M067         
1 32263U 07048A   25329.31788816 -.00000067  00000+0  22790-3 0  9994
2 32263  51.9736 284.4459 0001334 352.5944 159.8687 12.40681937829484
GLOBALSTAR M070         
1 32264U 07048B   25329.33619433 -.00000069  00000+0  19386-3 0  9994
2 32264  51.9773 357.5743 0000443 126.5959 247.2135 12.62326237834028
GLOBALSTAR M066         
1 32265U 07048C   25329.09484922 -.00000089  00000+0  43060-4 0  9990
2 32265  51.9594 283.8019 0005200 343.8415  98.9148 12.30379698835103
GLOBALSTAR M068         
1 32266U 07048D   25329.32196228 -.00000084  00000+0  11070-3 0  9996
2 32266  51.9856 171.0597 0002025 107.3695  63.4163 12.62834006837918
GLOBALSTAR M079         
1 37188U 10054A   25329.32074140 -.00000094  00000+0  53846-4 0  9992
2 37188  52.0062   9.2703 0000069 161.6469 279.4282 12.62268698696806
GLOBALSTAR M074         
1 37189U 10054B   25329.43119737 -.00000085  00000+0  10515-3 0  9992
2 37189  52.0039   8.2309 0000369  85.4752  17.7836 12.62263644697426
GLOBALSTAR M076         
1 37190U 10054C   25329.43832380 -.00000091  00000+0  71619-4 0  9990
2 37190  52.0054   8.3967 0000242  57.2542 317.0102 12.62267583697147
GLOBALSTAR M077         
1 37191U 10054D   25329.37053108 -.00000079  00000+0  39534-4 0  9993
2 37191  52.0119 337.5936 0017552 300.1967 166.8050 11.82670047697300
